NORAD_CAT_ID,OBJECT_NAME,OBJECT_TYPE,EPOCH,MEAN_MOTION,ECCENTRICITY,INCLINATION,RA_OF_ASC_NODE,ARG_OF_PERICENTER,MEAN_ANOMALY,BSTAR,MEAN_MOTION_DOT,MEAN_MOTION_DDOT,TLE_LINE0,TLE_LINE1,TLE_LINE2,SEMIMAJOR_AXIS,PERIOD,APOGEE,PERIGEE,DECAYED
52567.0,STARLINK-3929,PAYLOAD,2022-11-16 13:22:37,15.08836772,0.0002355,53.2165,147.1185,42.4257,317.6917,-1.6178e-05,-5.46e-06,0.0,0 STARLINK-3929,1 52567U 22051AL  22320.55738167 -.00000546  00000-0 -16178-4 0  9990,2 52567  53.2165 147.1185 0002355  42.4257 317.6917 15.08836772 29041,6917.89,95.438,541.384,538.126,0.0
52567.0,STARLINK-3929,PAYLOAD,2022-11-16 19:44:09,15.08842678,0.0002332,53.2161,145.9292,42.4188,317.6984,-5.4047e-06,-3.74e-06,0.0,0 STARLINK-3929,1 52567U 22051AL  22320.82233747 -.00000374  00000-0 -54047-5 0  9991,2 52567  53.2161 145.9292 0002332  42.4188 317.6984 15.08842678 29158,6917.871999999999,95.437,541.35,538.124,0.0
52567.0,STARLINK-3929,PAYLOAD,2022-11-17 11:38:01,15.0883858,0.0002288,53.2163,142.9563,45.0805,315.0373,7.0905e-05,8.400000000000001e-06,0.0,0 STARLINK-3929,1 52567U 22051AL  22321.48473541  .00000840  00000-0  70905-4 0  9998,2 52567  53.2163 142.9563 0002288  45.0805 315.0373 15.08838580 29187,6917.885,95.438,541.3330000000002,538.1669999999998,0.0
52567.0,STARLINK-3929,PAYLOAD,2022-11-18 13:04:10,15.08847159,0.0002341,53.2165,138.1984,46.6773,313.4414,8.899899999999999e-05,1.129e-05,0.0,0 STARLINK-3929,1 52567U 22051AL  22322.54456746  .00001129  00000-0  88999-4 0  9997,2 52567  53.2165 138.1984 0002341  46.6773 313.4414 15.08847159 29410,6917.859,95.437,541.3430000000002,538.104,0.0
52567.0,STARLINK-3929,PAYLOAD,2022-11-19 11:19:35,15.08842791,0.0002844,53.2161,134.037,41.6111,318.5098,-9.3981e-05,-1.784e-05,0.0,0 STARLINK-3929,1 52567U 22051AL  22323.47193565 -.00001784  00000-0 -93981-4 0  9993,2 52567  53.2161 134.0370 0002844  41.6111 318.5098 15.08842791 29487,6917.871999999999,95.437,541.7040000000002,537.769,0.0
52567.0,STARLINK-3929,PAYLOAD,2022-11-19 17:41:07,15.08842012,0.0002339,53.2162,132.8456,46.5574,313.5612,-2.5696e-05,-6.97e-06,0.0,0 STARLINK-3929,1 52567U 22051AL  22323.73689188 -.00000697  00000-0 -25696-4 0  9993,2 52567  53.2162 132.8456 0002339  46.5574 313.5612 15.08842012 29590,6917.874,95.437,541.357,538.121,0.0
52567.0,STARLINK-3929,PAYLOAD,2022-11-20 11:10:21,15.08845347,0.0002389,53.2166,129.575,46.2723,313.8467,-8.206100000000001e-06,-4.19e-06,0.0,0 STARLINK-3929,1 52567U 22051AL  22324.46552692 -.00000419  00000-0 -82061-5 0  9995,2 52567  53.2166 129.5750 0002389  46.2723 313.8467 15.08845347 29632,6917.864000000001,95.437,541.382,538.076,0.0
52567.0,STARLINK-3929,PAYLOAD,2022-11-20 17:31:53,15.08848521,0.0002443,53.2162,128.3852,48.9213,311.1989,1.2334e-05,-9.2e-07,0.0,0 STARLINK-3929,1 52567U 22051AL  22324.73048303 -.00000092  00000-0  12334-4 0  9995,2 52567  53.2162 128.3852 0002443  48.9213 311.1989 15.08848521 29673,6917.854,95.437,541.409,538.029,0.0
52567.0,STARLINK-3929,PAYLOAD,2022-11-21 04:39:36,15.08832185,0.0002619,53.2165,126.3054,44.1702,315.9498,-4.6287e-06,-3.62e-06,0.0,0 STARLINK-3929,1 52567U 22051AL  22325.19417451 -.00000362  00000-0 -46287-5 0  9996,2 52567  53.2165 126.3054 0002619  44.1702 315.9498 15.08832185 29816,6917.904,95.438,541.581,537.957,0.0
52567.0,STARLINK-3929,PAYLOAD,2022-11-21 11:01:09,15.08831461,0.0002369,53.2152,125.1141,44.3977,315.7205,-2.8708e-05,-7.45e-06,0.0,0 STARLINK-3929,1 52567U 22051AL  22325.45913600 -.00000745  00000-0 -28708-4 0  9994,2 52567  53.2152 125.1141 0002369  44.3977 315.7205 15.08831461 29780,6917.906,95.438,541.41,538.133,0.0
52567.0,STARLINK-3929,PAYLOAD,2022-11-21 17:22:41,15.08835102,0.0002354,53.2169,123.925,47.3522,312.7668,-1.296e-05,-4.95e-06,0.0,0 STARLINK-3929,1 52567U 22051AL  22325.72409429 -.00000495  00000-0 -12960-4 0  9998,2 52567  53.2169 123.9250 0002354  47.3522 312.7668 15.08835102 29829,6917.895,95.438,541.389,538.132,0.0
52567.0,STARLINK-3929,PAYLOAD,2022-11-22 14:02:42,15.08841641,0.0002419,53.2171,120.0594,50.3586,309.762,-1.5281e-06,-3.13e-06,0.0,0 STARLINK-3929,1 52567U 22051AL  22326.58521066 -.00000313  00000-0 -15281-5 0  9994,2 52567  53.2171 120.0594 0002419  50.3586 309.7620 15.08841641 30020,6917.875,95.437,541.414,538.067,0.0
52567.0,STARLINK-3929,PAYLOAD,2022-11-22 20:24:14,15.08844645,0.0002421,53.2168,118.8697,49.3834,310.7369,2.1943000000000007e-05,6.1e-07,0.0,0 STARLINK-3929,1 52567U 22051AL  22326.85016728  .00000061  00000-0  21943-4 0  9997,2 52567  53.2168 118.8697 0002421  49.3834 310.7369 15.08844645 29995,6917.866,95.437,541.406,538.056,0.0
52567.0,STARLINK-3929,PAYLOAD,2022-11-23 09:07:20,15.0883229,0.0002599,53.2173,116.4911,46.1172,314.0035,3.1121e-05,2.07e-06,0.0,0 STARLINK-3929,1 52567U 22051AL  22327.38009664  .00000207  00000-0  31121-4 0  9998,2 52567  53.2173 116.4911 0002599  46.1172 314.0035 15.08832290 30149,6917.904,95.438,541.567,537.971,0.0
52567.0,STARLINK-3929,PAYLOAD,2022-11-23 17:04:16,15.08830388,0.0002374,53.2168,115.0036,49.002,311.1177,2.0134e-05,3.2e-07,0.0,0 STARLINK-3929,1 52567U 22051AL  22327.71129912  .00000032  00000-0  20134-4 0  9992,2 52567  53.2168 115.0036 0002374  49.0020 311.1177 15.08830388 30120,6917.91,95.438,541.4169999999998,538.132,0.0
52567.0,STARLINK-3929,PAYLOAD,2022-11-24 10:33:30,15.08840295,0.0002398,53.2173,111.7325,48.2217,311.8979,-7.1612e-06,-4.02e-06,0.0,0 STARLINK-3929,1 52567U 22051AL  22328.43993589 -.00000402  00000-0 -71612-5 0  9992,2 52567  53.2173 111.7325 0002398  48.2217 311.8979 15.08840295 30300,6917.879,95.438,541.403,538.086,0.0
52567.0,STARLINK-3929,PAYLOAD,2022-11-24 16:55:02,15.08843953,0.0002373,53.2173,110.5432,48.0866,312.0328,2.4234e-05,9.7e-07,0.0,0 STARLINK-3929,1 52567U 22051AL  22328.70489213  .00000097  00000-0  24234-4 0  9991,2 52567  53.2173 110.5432 0002373  48.0866 312.0328 15.08843953 30278,6917.868,95.437,541.375,538.092,0.0
52567.0,STARLINK-3929,PAYLOAD,2022-11-25 10:24:18,15.08828518,0.0002289,53.2169,107.2726,38.5359,321.5797,7.7984e-06,-1.64e-06,0.0,0 STARLINK-3929,1 52567U 22051AL  22329.43354464 -.00000164  00000-0  77984-5 0  9998,2 52567  53.2169 107.2726 0002289  38.5359 321.5797 15.08828518 30454,6917.915,95.438,541.364,538.197,0.0
52567.0,STARLINK-3929,PAYLOAD,2022-11-25 18:21:13,15.08835831,0.0002403,53.2176,105.7853,47.5286,312.5909,4.3939e-05,4.11e-06,0.0,0 STARLINK-3929,1 52567U 22051AL  22329.76474041  .00000411  00000-0  43939-4 0  9994,2 52567  53.2176 105.7853 0002403  47.5286 312.5909 15.08835831 30500,6917.893,95.438,541.4209999999998,538.096,0.0
52567.0,STARLINK-3929,PAYLOAD,2022-11-26 18:11:59,15.08855156,0.0002383,53.2169,101.3247,45.6262,314.4925,5.8468e-05,6.43e-06,0.0,0 STARLINK-3929,1 52567U 22051AL  22330.75832513  .00000643  00000-0  58468-4 0  9997,2 52567  53.2169 101.3247 0002383  45.6262 314.4925 15.08855156 30658,6917.834,95.437,541.3480000000002,538.0509999999998,0.0
52567.0,STARLINK-3929,PAYLOAD,2022-11-27 02:08:55,15.08839903,0.0002442,53.2162,99.8374,44.8083,315.3106,8.0031e-05,9.86e-06,0.0,0 STARLINK-3929,1 52567U 22051AL  22331.08953309  .00000986  00000-0  80031-4 0  9992,2 52567  53.2162  99.8374 0002442  44.8083 315.3106 15.08839903 30700,6917.880999999999,95.438,541.435,538.056,0.0
52567.0,STARLINK-3929,PAYLOAD,2022-11-27 08:30:28,15.08837987,0.0002491,53.2173,98.6481,54.2819,305.8405,7.4963e-06,-1.69e-06,0.0,0 STARLINK-3929,1 52567U 22051AL  22331.35449842 -.00000169  00000-0  74963-5 0  9996,2 52567  53.2173  98.6481 0002491  54.2819 305.8405 15.08837987 30676,6917.887,95.438,541.475,538.028,0.0
52567.0,STARLINK-3929,PAYLOAD,2022-11-27 18:02:48,15.08831077,0.0002265,53.2165,96.863,49.24,310.8789,-5.7922e-05,-1.21e-05,0.0,0 STARLINK-3929,1 52567U 22051AL  22331.75194471 -.00001210  00000-0 -57922-4 0  9999,2 52567  53.2165  96.8630 0002265  49.2400 310.8789 15.08831077 30802,6917.908,95.438,541.34,538.206,0.0
52567.0,STARLINK-3929,PAYLOAD,2022-11-28 14:42:47,15.08852052,0.0002308,53.2174,92.998,48.941,311.1781,-3.8577e-05,-9.03e-06,0.0,0 STARLINK-3929,1 52567U 22051AL  22332.61305051 -.00000903  00000-0 -38577-4 0  9996,2 52567  53.2174  92.9980 0002308  48.9410 311.1781 15.08852052 30938,6917.844,95.437,541.305,538.112,0.0
52567.0,STARLINK-3929,PAYLOAD,2022-11-28 17:53:34,15.08844615,0.0002344,53.2168,92.4054,41.8652,318.2519,-7.4176e-05,-1.469e-05,0.0,0 STARLINK-3929,1 52567U 22051AL  22332.74553572 -.00001469  00000-0 -74176-4 0  9996,2 52567  53.2168  92.4054 0002344  41.8652 318.2519 15.08844615 30953,6917.866,95.437,541.3530000000002,538.11,0.0
52567.0,STARLINK-3929,PAYLOAD,2022-11-29 08:12:02,15.08830354,0.0002261,53.2173,89.7285,42.1874,317.9292,6.953100000000001e-05,8.18e-06,0.0,0 STARLINK-3929,1 52567U 22051AL  22333.34169958  .00000818  00000-0  69531-4 0  9998,2 52567  53.2173  89.7285 0002261  42.1874 317.9292 15.08830354 31042,6917.91,95.438,541.339,538.211,0.0
52567.0,STARLINK-3929,PAYLOAD,2022-11-29 14:33:35,15.08836881,0.0002444,53.2168,88.54,43.979,316.1396,5.8008e-05,6.35e-06,0.0,0 STARLINK-3929,1 52567U 22051AL  22333.60665678  .00000635  00000-0  58008-4 0  9991,2 52567  53.2168  88.5400 0002444  43.9790 316.1396 15.08836881 31015,6917.89,95.438,541.446,538.064,0.0
52567.0,STARLINK-3929,PAYLOAD,2022-11-30 08:02:49,15.08862566,0.0002274,53.2171,85.2679,43.7787,316.3385,-0.00020797,-3.599e-05,0.0,0 STARLINK-3929,1 52567U 22051AL  22334.33529231 -.00003599  00000-0 -20797-3 0  9993,2 52567  53.2171  85.2679 0002274  43.7787 316.3385 15.08862566 31194,6917.811,95.436,541.25,538.1030000000002,0.0
52567.0,STARLINK-3929,PAYLOAD,2022-11-30 17:35:08,15.08854589,0.000229,53.2173,83.484,44.2338,315.8837,-0.00022923,-3.936e-05,0.0,0 STARLINK-3929,1 52567U 22051AL  22334.73273403 -.00003936  00000-0 -22923-3 0  9992,2 52567  53.2173  83.4840 0002290  44.2338 315.8837 15.08854589 31251,6917.8359999999975,95.437,541.285,538.117,0.0
